0 SL-8 R/B
1 09444U 76098B   13282.50788381  .00000269  00000-0  98742-4 0  8526
2 09444 074.0509 253.7914 0013407 006.9521 107.6511 14.37325145375413
0 SL-8 R/B
1 09444U 76098B   13284.09848510  .00000267  00000-0  98329-4 0  8533
2 09444 074.0511 250.8676 0013506 003.8430 057.7998 14.37325611375641
0 SL-8 R/B
1 09444U 76098B   13285.43672063  .00000189  00000-0  72079-4 0  8548
2 09444 074.0513 248.4076 0013544 001.0288 142.3504 14.37326352375831
0 SL-8 R/B
1 09444U 76098B   13286.47989844  .00000194  00000-0  73600-4 0  8559
2 09444 074.0516 246.4901 0013589 358.8658 140.1298 14.37326920375985
0 SL-8 R/B
1 09444U 76098B   13288.06781354  .00000361  00000-0  12971-3 0  8562
2 09444 074.0519 243.5713 0013646 355.5803 076.5754 14.37328077376218
0 SL-8 R/B
1 09444U 76098B   13289.11075817  .00000291  00000-0  10608-3 0  8577
2 09444 074.0521 241.6543 0013689 353.4880 073.0852 14.37328638376360
0 SL-8 R/B
1 09444U 76098B   13290.44718365  .00000295  00000-0  10756-3 0  8586
2 09444 074.0522 239.1979 0013761 350.9288 148.0334 14.37329527376558
0 SL-8 R/B
1 09444U 76098B   13292.10380442  .00000319  00000-0  11547-3 0  8599
2 09444 074.0523 236.1533 0013833 347.6613 079.8434 14.37330057376795
0 SL-8 R/B
1 09444U 76098B   13293.15111885  .00000329  00000-0  11892-3 0  8604
2 09444 074.0522 234.2285 0013868 345.6056 098.9265 14.37330784376942
0 SL-8 R/B
1 09444U 76098B   13294.19896616  .00000294  00000-0  10718-3 0  8619
2 09444 074.0522 232.3026 0013909 343.4161 120.9008 14.37331996377097
0 SL-8 R/B
1 09444U 76098B   13295.38875525  .00000304  00000-0  11065-3 0  8626
2 09444 074.0523 230.1159 0013951 340.9590 157.3139 14.37333000377262
